{"type":"FeatureCollection","features":[{"type":"Feature","geometry":{"type":"LineString","coordinates":[[-114.065522,51.052824],[-114.010297,51.052405],[-114.146149,51.059541],[-114.039169,51.059653],[-114.152695,51.024194]]},"properties":{"crewId":"Crew 1","crewPool":"Shared Operational Workforce","crewColor":"#2a78d6","jobs":5,"standIn":true}},{"type":"Feature","geometry":{"type":"LineString","coordinates":[[-114.055186,51.037438],[-114.022482,51.022857],[-114.055186,51.037438],[-114.152695,51.024194]]},"properties":{"crewId":"Crew 2","crewPool":"Shared Operational Workforce","crewColor":"#eb6834","jobs":5,"standIn":true}},{"type":"Feature","geometry":{"type":"LineString","coordinates":[[-113.987495,51.058932],[-113.970054,51.074239],[-114.115128,51.074207],[-114.073605,51.012993],[-114.152695,51.024194]]},"properties":{"crewId":"Crew 3","crewPool":"Shared Operational Workforce","crewColor":"#1baf7a","jobs":5,"standIn":true}},{"type":"Feature","geometry":{"type":"LineString","coordinates":[[-114.007536,51.08714],[-113.970054,51.074239],[-114.207666,51.132602],[-114.152695,51.024194]]},"properties":{"crewId":"Crew 4","crewPool":"Shared Operational Workforce","crewColor":"#eda100","jobs":5,"standIn":true}},{"type":"Feature","geometry":{"type":"LineString","coordinates":[[-114.050848,51.04709],[-113.968758,51.049243],[-114.162248,51.071076],[-114.152695,51.024194]]},"properties":{"crewId":"Crew 5","crewPool":"Shared Operational Workforce","crewColor":"#e87ba4","jobs":5,"standIn":true}},{"type":"Feature","geometry":{"type":"LineString","coordinates":[[-113.958375,51.156127],[-113.958387,51.117914],[-114.017183,51.143384],[-113.97573,51.12519],[-114.152695,51.024194]]},"properties":{"crewId":"Crew 6","crewPool":"Shared Operational Workforce","crewColor":"#008300","jobs":5,"standIn":true}},{"type":"Feature","geometry":{"type":"LineString","coordinates":[[-113.97005,51.103392],[-114.112192,51.171218],[-114.066709,51.117581],[-114.152695,51.024194],[-114.100782,51.015954]]},"properties":{"crewId":"Crew 7","crewPool":"Shared Operational Workforce","crewColor":"#4a3aa7","jobs":5,"standIn":true}},{"type":"Feature","geometry":{"type":"LineString","coordinates":[[-113.96103,51.105254],[-114.094631,51.072665],[-114.066709,51.117581],[-114.152695,51.024194],[-114.100782,51.015954]]},"properties":{"crewId":"Crew 8","crewPool":"Shared Operational Workforce","crewColor":"#e34948","jobs":5,"standIn":true}},{"type":"Feature","geometry":{"type":"LineString","coordinates":[[-114.057222,51.013256],[-114.053696,50.972415],[-114.073976,50.903373],[-114.152695,51.024194],[-114.100782,51.015954]]},"properties":{"crewId":"Crew 9","crewPool":"Shared Operational Workforce","crewColor":"#2a78d6","jobs":5,"standIn":true}},{"type":"Feature","geometry":{"type":"LineString","coordinates":[[-113.94534,51.10335],[-113.946703,51.05969],[-114.013311,51.060832],[-114.152695,51.024194],[-114.100782,51.015954]]},"properties":{"crewId":"Crew 10","crewPool":"Shared Operational Workforce","crewColor":"#eb6834","jobs":5,"standIn":true}},{"type":"Feature","geometry":{"type":"LineString","coordinates":[[-114.100483,51.034128],[-114.100782,51.015954],[-114.152719,51.033371],[-114.152695,51.024194],[-114.100782,51.015954]]},"properties":{"crewId":"Crew 11","crewPool":"Shared Operational Workforce","crewColor":"#1baf7a","jobs":5,"standIn":true}},{"type":"Feature","geometry":{"type":"LineString","coordinates":[[-113.985309,51.013391],[-114.053696,50.972415],[-113.95097,50.95131],[-114.152695,51.024194],[-114.100782,51.015954]]},"properties":{"crewId":"Crew 12","crewPool":"Shared Operational Workforce","crewColor":"#eda100","jobs":5,"standIn":true}},{"type":"Feature","geometry":{"type":"LineString","coordinates":[[-113.94524,50.922066],[-113.961353,50.917149],[-114.032618,50.870403],[-114.106366,50.956003],[-114.100782,51.015954]]},"properties":{"crewId":"Crew 13","crewPool":"Shared Operational Workforce","crewColor":"#e87ba4","jobs":5,"standIn":true}},{"type":"Feature","geometry":{"type":"LineString","coordinates":[[-114.061647,51.059502],[-114.135919,51.096066],[-114.162507,51.096054],[-114.152695,51.024194],[-114.100782,51.015954]]},"properties":{"crewId":"Crew 14","crewPool":"Shared Operational Workforce","crewColor":"#008300","jobs":5,"standIn":true}},{"type":"Feature","geometry":{"type":"LineString","coordinates":[[-114.061647,51.059502],[-114.03508,51.050551],[-114.162507,51.096054],[-114.152695,51.024194],[-114.188388,51.083346]]},"properties":{"crewId":"Crew 15","crewPool":"Shared Operational Workforce","crewColor":"#4a3aa7","jobs":5,"standIn":true}},{"type":"Feature","geometry":{"type":"LineString","coordinates":[[-113.991695,51.0899],[-114.084911,51.131644],[-114.062056,51.088018],[-114.152695,51.024194],[-114.188388,51.083346]]},"properties":{"crewId":"Crew 16","crewPool":"Shared Operational Workforce","crewColor":"#e34948","jobs":5,"standIn":true}},{"type":"Feature","geometry":{"type":"LineString","coordinates":[[-113.970062,51.088778],[-114.084911,51.131644],[-114.039169,51.059653],[-114.152695,51.024194],[-113.946762,51.074248]]},"properties":{"crewId":"Crew 17","crewPool":"Shared Operational Workforce","crewColor":"#737373","jobs":5,"standIn":true}},{"type":"Feature","geometry":{"type":"LineString","coordinates":[[-114.056196,50.956624],[-114.053696,50.972415],[-114.056196,50.956624],[-114.129622,50.958199],[-114.012439,50.991873]]},"properties":{"crewId":"Crew 18","crewPool":"Shared Operational Workforce","crewColor":"#737373","jobs":5,"standIn":true}},{"type":"Feature","geometry":{"type":"LineString","coordinates":[[-114.088072,51.159709],[-114.084911,51.131644],[-114.132689,51.160175],[-114.088072,51.159709],[-114.162507,51.096054]]},"properties":{"crewId":"Crew 19","crewPool":"Shared Operational Workforce","crewColor":"#737373","jobs":5,"standIn":true}},{"type":"Feature","geometry":{"type":"LineString","coordinates":[[-114.019126,51.034141],[-113.997339,51.034152],[-114.039169,51.059653],[-114.152695,51.024194],[-114.055186,51.037438]]},"properties":{"crewId":"Crew 20","crewPool":"Shared Operational Workforce","crewColor":"#737373","jobs":5,"standIn":true}}]}